{"type": "FeatureCollection", "features": [ {"type": "Feature", "properties": {"norad_id": 32384, "name": "GPS BIIRM-5 (PRN 29)", "group": "gps-ops", "lat": -33.85768484930013, "lon": 129.6668728275425, "alt_km": 20142.220942416083, "timestamp": "2025-12-06T09:34:17.172620+00:00", "meta": {"OBJECT_NAME": "GPS BIIRM-5 (PRN 29)", "OBJECT_ID": "2007-062A", "EPOCH": "2025-12-05T07:59:29.428800", "MEAN_MOTION": 2.00576795, "ECCENTRICITY": 0.00322138, "INCLINATION": 55.1888, "RA_OF_ASC_NODE": 281.943, "ARG_OF_PERICENTER": 162.7364, "MEAN_ANOMALY": 9.9869, "EPHEMERIS_TYPE": 0, "CLASSIFICATION_TYPE": "U", "NORAD_CAT_ID": 32384, "ELEMENT_SET_NO": 999, "REV_AT_EPOCH": 13162, "BSTAR": 0, "MEAN_MOTION_DOT": -3.8e-07, "MEAN_MOTION_DDOT": 0}, "tle": {"line1": "1 32384U 07062A   25339.33297950 -.00000038  00000+0  00000+0 0  9995", "line2": "2 32384  55.1888 281.9430 0032213 162.7364   9.9869  2.00576795131629"}}, "geometry": {"type": "Point", "coordinates": [129.6668728275425, -33.85768484930013]}}, {"type": "Feature", "properties": {"norad_id": 32711, "name": "GPS BIIRM-6 (PRN 07)", "group": "gps-ops", "lat": 28.032751274788552, "lon": -44.75063759087923, "alt_km": 20263.475288949114, "timestamp": "2025-12-06T09:34:17.172631+00:00", "meta": {"OBJECT_NAME": "GPS BIIRM-6 (PRN 07)", "OBJECT_ID": "2008-012A", "EPOCH": "2025-12-05T16:39:04.632768", "MEAN_MOTION": 2.00565224, "ECCENTRICITY": 0.02021668, "INCLINATION": 54.476, "RA_OF_ASC_NODE": 157.6542, "ARG_OF_PERICENTER": 244.8708, "MEAN_ANOMALY": 113.0379, "EPHEMERIS_TYPE": 0, "CLASSIFICATION_TYPE": "U", "NORAD_CAT_ID": 32711, "ELEMENT_SET_NO": 999, "REV_AT_EPOCH": 12987, "BSTAR": 0, "MEAN_MOTION_DOT": 7e-07, "MEAN_MOTION_DDOT": 0}, "tle": {"line1": "1 32711U 08012A   25339.69380362  .00000070  00000+0  00000+0 0  9999", "line2": "2 32711  54.4760 157.6542 0202166 244.8708 113.0379  2.00565224129879"}}, "geometry": {"type": "Point", "coordinates": [-44.75063759087923, 28.032751274788552]}}, {"type": "Feature", "properties": {"norad_id": 35752, "name": "GPS BIIRM-8 (PRN 05)", "group": "gps-ops", "lat": 10.276973921480302, "lon": -151.9466593100262, "alt_km": 20169.28232791395, "timestamp": "2025-12-06T09:34:17.172643+00:00", "meta": {"OBJECT_NAME": "GPS BIIRM-8 (PRN 05)", "OBJECT_ID": "2009-043A", "EPOCH": "2025-12-01T04:42:32.815296", "MEAN_MOTION": 2.00566259, "ECCENTRICITY": 0.00521242, "INCLINATION": 56.0822, "RA_OF_ASC_NODE": 35.2386, "ARG_OF_PERICENTER": 82.0997, "MEAN_ANOMALY": 288.3285, "EPHEMERIS_TYPE": 0, "CLASSIFICATION_TYPE": "U", "NORAD_CAT_ID": 35752, "ELEMENT_SET_NO": 999, "REV_AT_EPOCH": 11939, "BSTAR": 0, "MEAN_MOTION_DOT": -6.6e-07, "MEAN_MOTION_DDOT": 0}, "tle": {"line1": "1 35752U 09043A   25335.19621314 -.00000066  00000+0  00000+0 0  9994", "line2": "2 35752  56.0822  35.2386 0052124  82.0997 288.3285  2.00566259119397"}}, "geometry": {"type": "Point", "coordinates": [-151.9466593100262, 10.276973921480302]}}, {"type": "Feature", "properties": {"norad_id": 36585, "name": "GPS BIIF-1  (PRN 25)", "group": "gps-ops", "lat": -51.79480302638381, "lon": 150.4296865167947, "alt_km": 20444.46574819224, "timestamp": "2025-12-06T09:34:17.172654+00:00", "meta": {"OBJECT_NAME": "GPS BIIF-1  (PRN 25)", "OBJECT_ID": "2010-022A", "EPOCH": "2025-12-05T06:08:38.756832", "MEAN_MOTION": 2.00552724, "ECCENTRICITY": 0.01258019, "INCLINATION": 54.3015, "RA_OF_ASC_NODE": 216.3758, "ARG_OF_PERICENTER": 64.9927, "MEAN_ANOMALY": 115.5079, "EPHEMERIS_TYPE": 0, "CLASSIFICATION_TYPE": "U", "NORAD_CAT_ID": 36585, "ELEMENT_SET_NO": 999, "REV_AT_EPOCH": 11370, "BSTAR": 0, "MEAN_MOTION_DOT": 6.2e-07, "MEAN_MOTION_DDOT": 0}, "tle": {"line1": "1 36585U 10022A   25339.25600413  .00000062  00000+0  00000+0 0  9991", "line2": "2 36585  54.3015 216.3758 0125801  64.9927 115.5079  2.00552724113700"}}, "geometry": {"type": "Point", "coordinates": [150.4296865167947, -51.79480302638381]}}, {"type": "Feature", "properties": {"norad_id": 38833, "name": "GPS BIIF-3  (PRN 24)", "group": "gps-ops", "lat": 17.103274162202407, "lon": 164.6365954247176, "alt_km": 19832.478883803986, "timestamp": "2025-12-06T09:34:17.172666+00:00", "meta": {"OBJECT_NAME": "GPS BIIF-3  (PRN 24)", "OBJECT_ID": "2012-053A", "EPOCH": "2025-12-04T20:58:35.662368", "MEAN_MOTION": 2.00564858, "ECCENTRICITY": 0.0175571, "INCLINATION": 53.5563, "RA_OF_ASC_NODE": 151.5608, "ARG_OF_PERICENTER": 63.8805, "MEAN_ANOMALY": 297.9293, "EPHEMERIS_TYPE": 0, "CLASSIFICATION_TYPE": "U", "NORAD_CAT_ID": 38833, "ELEMENT_SET_NO": 999, "REV_AT_EPOCH": 9554, "BSTAR": 0, "MEAN_MOTION_DOT": 7.4e-07, "MEAN_MOTION_DDOT": 0}, "tle": {"line1": "1 38833U 12053A   25338.87402387  .00000074  00000+0  00000+0 0  9995", "line2": "2 38833  53.5563 151.5608 0175571  63.8805 297.9293  2.00564858 95548"}}, "geometry": {"type": "Point", "coordinates": [164.6365954247176, 17.103274162202407]}}, {"type": "Feature", "properties": {"norad_id": 39166, "name": "GPS BIIF-4  (PRN 27)", "group": "gps-ops", "lat": 43.815331146225994, "lon": 53.9722366386085, "alt_km": 20068.0710547443, "timestamp": "2025-12-06T09:34:17.172689+00:00", "meta": {"OBJECT_NAME": "GPS BIIF-4  (PRN 27)", "OBJECT_ID": "2013-023A", "EPOCH": "2025-12-02T17:50:49.750368", "MEAN_MOTION": 2.00565046, "ECCENTRICITY": 0.0137297, "INCLINATION": 54.6608, "RA_OF_ASC_NODE": 276.9746, "ARG_OF_PERICENTER": 48.5033, "MEAN_ANOMALY": 312.6627, "EPHEMERIS_TYPE": 0, "CLASSIFICATION_TYPE": "U", "NORAD_CAT_ID": 39166, "ELEMENT_SET_NO": 999, "REV_AT_EPOCH": 9194, "BSTAR": 0, "MEAN_MOTION_DOT": -3.8e-07, "MEAN_MOTION_DDOT": 0}, "tle": {"line1": "1 39166U 13023A   25336.74363137 -.00000038  00000+0  00000+0 0  9997", "line2": "2 39166  54.6608 276.9746 0137297  48.5033 312.6627  2.00565046 91947"}}, "geometry": {"type": "Point", "coordinates": [53.9722366386085, 43.815331146225994]}}, {"type": "Feature", "properties": {"norad_id": 39533, "name": "GPS BIIF-5  (PRN 30)", "group": "gps-ops", "lat": 43.145941818225964, "lon": -66.5402878927719, "alt_km": 20227.540218167855, "timestamp": "2025-12-06T09:34:17.172707+00:00", "meta": {"OBJECT_NAME": "GPS BIIF-5  (PRN 30)", "OBJECT_ID": "2014-008A", "EPOCH": "2025-12-05T17:30:27.207648", "MEAN_MOTION": 2.00573953, "ECCENTRICITY": 0.00790348, "INCLINATION": 53.63, "RA_OF_ASC_NODE": 157.2106, "ARG_OF_PERICENTER": 226.4047, "MEAN_ANOMALY": 132.9556, "EPHEMERIS_TYPE": 0, "CLASSIFICATION_TYPE": "U", "NORAD_CAT_ID": 39533, "ELEMENT_SET_NO": 999, "REV_AT_EPOCH": 8580, "BSTAR": 0, "MEAN_MOTION_DOT": 6.8e-07, "MEAN_MOTION_DDOT": 0}, "tle": {"line1": "1 39533U 14008A   25339.72948157  .00000068  00000+0  00000+0 0  9993", "line2": "2 39533  53.6300 157.2106 0079034 226.4047 132.9556  2.00573953 85808"}}, "geometry": {"type": "Point", "coordinates": [-66.5402878927719, 43.145941818225964]}}, {"type": "Feature", "properties": {"norad_id": 39741, "name": "GPS BIIF-6  (PRN 06)", "group": "gps-ops", "lat": -55.60740259110778, "lon": -95.66084406355067, "alt_km": 20108.353703247838, "timestamp": "2025-12-06T09:34:17.172720+00:00", "meta": {"OBJECT_NAME": "GPS BIIF-6  (PRN 06)", "OBJECT_ID": "2014-026A", "EPOCH": "2025-12-05T12:19:36.956352", "MEAN_MOTION": 2.00561711, "ECCENTRICITY": 0.00389807, "INCLINATION": 56.5863, "RA_OF_ASC_NODE": 339.0576, "ARG_OF_PERICENTER": 318.2781, "MEAN_ANOMALY": 41.4416, "EPHEMERIS_TYPE": 0, "CLASSIFICATION_TYPE": "U", "NORAD_CAT_ID": 39741, "ELEMENT_SET_NO": 999, "REV_AT_EPOCH": 8465, "BSTAR": 0, "MEAN_MOTION_DOT": -7.5e-07, "MEAN_MOTION_DDOT": 0}, "tle": {"line1": "1 39741U 14026A   25339.51362218 -.00000075  00000+0  00000+0 0  9998", "line2": "2 39741  56.5863 339.0576 0038980 318.2781  41.4416  2.00561711 84656"}}, "geometry": {"type": "Point", "coordinates": [-95.66084406355067, -55.60740259110778]}}, {"type": "Feature", "properties": {"norad_id": 40105, "name": "GPS BIIF-7  (PRN 09)", "group": "gps-ops", "lat": -29.184033865320494, "lon": -61.05029000442126, "alt_km": 20195.023402394367, "timestamp": "2025-12-06T09:34:17.172731+00:00", "meta": {"OBJECT_NAME": "GPS BIIF-7  (PRN 09)", "OBJECT_ID": "2014-045A", "EPOCH": "2025-12-05T14:26:16.975968", "MEAN_MOTION": 2.00571979, "ECCENTRICITY": 0.00328896, "INCLINATION": 55.2248, "RA_OF_ASC_NODE": 96.1837, "ARG_OF_PERICENTER": 119.6741, "MEAN_ANOMALY": 240.6258, "EPHEMERIS_TYPE": 0, "CLASSIFICATION_TYPE": "U", "NORAD_CAT_ID": 40105, "ELEMENT_SET_NO": 999, "REV_AT_EPOCH": 8219, "BSTAR": 0, "MEAN_MOTION_DOT": -1.2e-07, "MEAN_MOTION_DDOT": 0}, "tle": {"line1": "1 40105U 14045A   25339.60158537 -.00000012  00000+0  00000+0 0  9993", "line2": "2 40105  55.2248  96.1837 0032889 119.6741 240.6258  2.00571979 82198"}}, "geometry": {"type": "Point", "coordinates": [-61.05029000442126, -29.184033865320494]}}, {"type": "Feature", "properties": {"norad_id": 40294, "name": "GPS BIIF-8  (PRN 03)", "group": "gps-ops", "lat": -43.86843924159027, "lon": -0.4577023997790944, "alt_km": 20279.8547675167, "timestamp": "2025-12-06T09:34:17.172742+00:00", "meta": {"OBJECT_NAME": "GPS BIIF-8  (PRN 03)", "OBJECT_ID": "2014-068A", "EPOCH": "2025-12-03T11:38:05.638272", "MEAN_MOTION": 2.00564094, "ECCENTRICITY": 0.00608191, "INCLINATION": 56.851, "RA_OF_ASC_NODE": 38.5042, "ARG_OF_PERICENTER": 69.3788, "MEAN_ANOMALY": 291.3251, "EPHEMERIS_TYPE": 0, "CLASSIFICATION_TYPE": "U", "NORAD_CAT_ID": 40294, "ELEMENT_SET_NO": 999, "REV_AT_EPOCH": 8128, "BSTAR": 0, "MEAN_MOTION_DOT": -6.5e-07, "MEAN_MOTION_DDOT": 0}, "tle": {"line1": "1 40294U 14068A   25337.48478748 -.00000065  00000+0  00000+0 0  9998", "line2": "2 40294  56.8510  38.5042 0060819  69.3788 291.3251  2.00564094 81285"}}, "geometry": {"type": "Point", "coordinates": [-0.4577023997790944, -43.86843924159027]}}]}